KUIPER-00095            
1 65134U 25171C   25355.12328942  .00003767  00000+0  35640-3 0  9999
2 65134  51.8908 137.4086 0004947 218.4453 141.6165 14.95806774 21370
KUIPER-00096            
1 65135U 25171D   25355.14019304  .00014608  00000+0  19393-2 0  9993
2 65135  51.9011 145.4308 0010746 244.9733 115.0113 14.79939726 21264
KUIPER-00097            
1 65136U 25171E   25355.13738848  .00002260  00000+0  32535-3 0  9999
2 65136  51.9003 148.0582 0009808 248.0300 111.9620 14.79937187 21213
KUIPER-00098            
1 65137U 25171F   25354.72961585  .00000559  00000+0  10266-3 0  9996
2 65137  51.8980 152.2510 0007104 225.9555 134.0823 14.79853712 20477
KUIPER-00099            
1 65138U 25171G   25355.25001157  .00036982  00000+0  48616-2 0  9994
2 65138  51.9009 139.9110 0001124 125.7383 251.5481 14.79861624  5234
KUIPER-00100            
1 65139U 25171H   25355.00002315 -.00021879  00000+0 -25758-2 0  9998
2 65139  51.8991 138.5120 0001244 325.3862 323.4759 14.84128989  5034
KUIPER-00102            
1 65140U 25171J   25355.25001157  .00028943  00000+0  39508-2 0  9995
2 65140  51.8969 139.9038 0000611  74.6559 145.6493 14.78390457  5154
KUIPER-00103            
1 65141U 25171K   25354.75528577  .00001923  00000+0  28144-3 0  9994
2 65141  51.8973 159.6263 0005644 222.6907 137.3618 14.79906527 21025
